start=new Date('2023-04-07T00:00:00.000Z').valueOf();
sats=[{"INCLINATION":"43.0011","APOAPSIS":"560.105","SEMIMAJOR_AXIS":"6937.175","MEAN_MOTION_DOT":"0.00014855","RA_OF_ASC_NODE":"176.1822","COUNTRY_CODE":"US","OBJECT_NAME":"STARLINK-5368","SITE":"AFETR","CLASSIFICATION_TYPE":"U","NORAD_CAT_ID":"54840","BSTAR":"0.00111200000000","ARG_OF_PERICENTER":"264.0402","OBJECT_TYPE":"PAYLOAD","ELEMENT_SET_NO":"999","GP_ID":"229646586","PERIAPSIS":"557.976","REV_AT_EPOCH":"1630","TIME_SYSTEM":"UTC","OBJECT_ID":"2022-177W","LAUNCH_DATE":"2022-12-28","EPOCH":"2023-04-06T16:18:39.724416","RCS_SIZE":"LARGE","MEAN_MOTION_DDOT":"0.0000000000000","EPHEMERIS_TYPE":"0","TLE_LINE2":"2 54840  43.0011 176.1822 0001535 264.0402  96.0265 15.02549362 16306","ECCENTRICITY":"0.00015350","MEAN_ANOMALY":"96.0265","CENTER_NAME":"EARTH","MEAN_ELEMENT_THEORY":"SGP4","REF_FRAME":"TEME","DECAY_DATE":null,"PERIOD":"95.837","TLE_LINE1":"1 54840U 22177W   23096.67962644  .00014855  00000-0  11120-2 0  9994","FILE":"3882049","MEAN_MOTION":"15.02549362"},{"PERIAPSIS":"558.117","OBJECT_TYPE":"PAYLOAD","ELEMENT_SET_NO":"999","GP_ID":"229646814","OBJECT_ID":"2022-177X","TIME_SYSTEM":"UTC","REV_AT_EPOCH":"1630","RA_OF_ASC_NODE":"176.2683","COUNTRY_CODE":"US","OBJECT_NAME":"STARLINK-4659","SITE":"AFETR","INCLINATION":"43.0012","APOAPSIS":"560.018","SEMIMAJOR_AXIS":"6937.202","MEAN_MOTION_DOT":"0.00021049","ARG_OF_PERICENTER":"279.0534","CLASSIFICATION_TYPE":"U","NORAD_CAT_ID":"54841","BSTAR":"0.00156840000000","DECAY_DATE":null,"PERIOD":"95.838","MEAN_ANOMALY":"81.0153","MEAN_ELEMENT_THEORY":"SGP4","CENTER_NAME":"EARTH","REF_FRAME":"TEME","FILE":"3882049","MEAN_MOTION":"15.02540640","TLE_LINE1":"1 54841U 22177X   23096.69074772  .00021049  00000-0  15684-2 0  9995","EPOCH":"2023-04-06T16:34:40.603008","LAUNCH_DATE":"2022-12-28","EPHEMERIS_TYPE":"0","MEAN_MOTION_DDOT":"0.0000000000000","ECCENTRICITY":"0.00013700","TLE_LINE2":"2 54841  43.0012 176.2683 0001370 279.0534  81.0153 15.02540640 16303","RCS_SIZE":"LARGE"},{"MEAN_MOTION_DOT":"0.00007510","SEMIMAJOR_AXIS":"6937.199","APOAPSIS":"560.113","INCLINATION":"43.0018","OBJECT_NAME":"STARLINK-5387","SITE":"AFETR","COUNTRY_CODE":"US","RA_OF_ASC_NODE":"174.7059","BSTAR":"0.00057031000000","CLASSIFICATION_TYPE":"U","NORAD_CAT_ID":"54842","ARG_OF_PERICENTER":"275.6029","GP_ID":"229620337","ELEMENT_SET_NO":"999","OBJECT_TYPE":"PAYLOAD","PERIAPSIS":"558.014","REV_AT_EPOCH":"1536","OBJECT_ID":"2022-177Y","TIME_SYSTEM":"UTC","LAUNCH_DATE":"2022-12-28","EPOCH":"2023-04-06T22:35:11.108256","RCS_SIZE":"LARGE","ECCENTRICITY":"0.00015130","TLE_LINE2":"2 54842  43.0018 174.7059 0001513 275.6029  84.4641 15.02541839 15365","MEAN_MOTION_DDOT":"0.0000000000000","EPHEMERIS_TYPE":"0","REF_FRAME":"TEME","MEAN_ELEMENT_THEORY":"SGP4","MEAN_ANOMALY":"84.4641","CENTER_NAME":"EARTH","PERIOD":"95.838","DECAY_DATE":null,"TLE_LINE1":"1 54842U 22177Y   23096.94110079  .00007510  00000-0  57031-3 0  9995","MEAN_MOTION":"15.02541839","FILE":"3882019"},{"NORAD_CAT_ID":"54843","CLASSIFICATION_TYPE":"U","BSTAR":"0.00078856000000","ARG_OF_PERICENTER":"260.8494","APOAPSIS":"560.331","INCLINATION":"43.0007","MEAN_MOTION_DOT":"0.00010466","SEMIMAJOR_AXIS":"6937.196","RA_OF_ASC_NODE":"176.5864","COUNTRY_CODE":"US","OBJECT_NAME":"STARLINK-5304","SITE":"AFETR","REV_AT_EPOCH":"1629","TIME_SYSTEM":"UTC","OBJECT_ID":"2022-177Z","OBJECT_TYPE":"PAYLOAD","GP_ID":"229646325","ELEMENT_SET_NO":"999","PERIAPSIS":"557.790","RCS_SIZE":"LARGE","EPHEMERIS_TYPE":"0","MEAN_MOTION_DDOT":"0.0000000000000","TLE_LINE2":"2 54843  43.0007 176.5864 0001831 260.8494  99.2141 15.02542786 16297","ECCENTRICITY":"0.00018310","LAUNCH_DATE":"2022-12-28","EPOCH":"2023-04-06T14:50:55.699008","TLE_LINE1":"1 54843U 22177Z   23096.61870022  .00010466  00000-0  78856-3 0  9993","FILE":"3882049","MEAN_MOTION":"15.02542786","MEAN_ANOMALY":"99.2141","CENTER_NAME":"EARTH","MEAN_ELEMENT_THEORY":"SGP4","REF_FRAME":"TEME","PERIOD":"95.838","DECAY_DATE":null},{"PERIOD":"95.900","DECAY_DATE":null,"MEAN_ANOMALY":"126.6571","CENTER_NAME":"EARTH","MEAN_ELEMENT_THEORY":"SGP4","REF_FRAME":"TEME","FILE":"3881771","MEAN_MOTION":"15.01566603","TLE_LINE1":"1 54844U 22177AA  23096.26700968 -.00000607  00000-0 -30743-4 0  9998","EPOCH":"2023-04-06T06:24:29.636352","LAUNCH_DATE":"2022-12-28","MEAN_MOTION_DDOT":"0.0000000000000","EPHEMERIS_TYPE":"0","ECCENTRICITY":"0.00016080","TLE_LINE2":"2 54844  43.0026 178.2209 0001608 233.4123 126.6571 15.01566603 16248","RCS_SIZE":"LARGE","PERIAPSIS":"560.951","OBJECT_TYPE":"PAYLOAD","GP_ID":"229612730","ELEMENT_SET_NO":"999","TIME_SYSTEM":"UTC","OBJECT_ID":"2022-177AA","REV_AT_EPOCH":"1624","COUNTRY_CODE":"US","RA_OF_ASC_NODE":"178.2209","OBJECT_NAME":"STARLINK-5388","SITE":"AFETR","APOAPSIS":"563.183","INCLINATION":"43.0026","MEAN_MOTION_DOT":"-0.00000607","SEMIMAJOR_AXIS":"6940.202","ARG_OF_PERICENTER":"233.4123","NORAD_CAT_ID":"54844","CLASSIFICATION_TYPE":"U","BSTAR":"-0.00003074300000"},{"REF_FRAME":"TEME","MEAN_ELEMENT_THEORY":"SGP4","MEAN_ANOMALY":"93.0333","CENTER_NAME":"EARTH","PERIOD":"95.837","DECAY_DATE":null,"TLE_LINE1":"1 54845U 22177AB  23096.67740957  .00014135  00000-0  10591-2 0  9992","MEAN_MOTION":"15.02544644","FILE":"3882049","LAUNCH_DATE":"2022-12-28","EPOCH":"2023-04-06T16:15:28.186848","RCS_SIZE":"LARGE","ECCENTRICITY":"0.00015230","TLE_LINE2":"2 54845  43.0013 176.1667 0001523 267.0335  93.0333 15.02544644 16306","MEAN_MOTION_DDOT":"0.0000000000000","EPHEMERIS_TYPE":"0","GP_ID":"229647303","ELEMENT_SET_NO":"999","OBJECT_TYPE":"PAYLOAD","PERIAPSIS":"557.998","REV_AT_EPOCH":"1630","TIME_SYSTEM":"UTC","OBJECT_ID":"2022-177AB","MEAN_MOTION_DOT":"0.00014135","SEMIMAJOR_AXIS":"6937.190","APOAPSIS":"560.111","INCLINATION":"43.0013","SITE":"AFETR","OBJECT_NAME":"STARLINK-5082","RA_OF_ASC_NODE":"176.1667","COUNTRY_CODE":"US","BSTAR":"0.00105910000000","CLASSIFICATION_TYPE":"U","NORAD_CAT_ID":"54845","ARG_OF_PERICENTER":"267.0335"},{"GP_ID":"229645587","ELEMENT_SET_NO":"999","OBJECT_TYPE":"PAYLOAD","PERIAPSIS":"558.008","REV_AT_EPOCH":"1629","OBJECT_ID":"2022-177AC","TIME_SYSTEM":"UTC","MEAN_MOTION_DOT":"0.00004762","SEMIMAJOR_AXIS":"6937.188","APOAPSIS":"560.098","INCLINATION":"43.0020","OBJECT_NAME":"STARLINK-5360","SITE":"AFETR","RA_OF_ASC_NODE":"176.4925","COUNTRY_CODE":"US","BSTAR":"0.00036728000000","NORAD_CAT_ID":"54846","CLASSIFICATION_TYPE":"U","ARG_OF_PERICENTER":"279.1736","REF_FRAME":"TEME","MEAN_ANOMALY":"80.8936","CENTER_NAME":"EARTH","MEAN_ELEMENT_THEORY":"SGP4","PERIOD":"95.837","DECAY_DATE":null,"TLE_LINE1":"1 54846U 22177AC  23096.60538088  .00004762  00000-0  36728-3 0  9992","MEAN_MOTION":"15.02545244","FILE":"3882049","LAUNCH_DATE":"2022-12-28","EPOCH":"2023-04-06T14:31:44.908032","RCS_SIZE":"LARGE","TLE_LINE2":"2 54846  43.0020 176.4925 0001506 279.1736  80.8936 15.02545244 16293","ECCENTRICITY":"0.00015060","MEAN_MOTION_DDOT":"0.0000000000000","EPHEMERIS_TYPE":"0"},{"MEAN_MOTION":"15.02539060","FILE":"3882049","TLE_LINE1":"1 54847U 22177AD  23096.62921007  .00000484  00000-0  50923-4 0  9993","DECAY_DATE":null,"PERIOD":"95.838","REF_FRAME":"TEME","CENTER_NAME":"EARTH","MEAN_ANOMALY":"112.2729","MEAN_ELEMENT_THEORY":"SGP4","TLE_LINE2":"2 54847  43.0005 150.6556 0001006 247.8007 112.2729 15.02539060 16591","ECCENTRICITY":"0.00010060","EPHEMERIS_TYPE":"0","MEAN_MOTION_DDOT":"0.0000000000000","RCS_SIZE":"LARGE","EPOCH":"2023-04-06T15:06:03.750048","LAUNCH_DATE":"2022-12-28","TIME_SYSTEM":"UTC","OBJECT_ID":"2022-177AD","REV_AT_EPOCH":"1659","PERIAPSIS":"558.374","ELEMENT_SET_NO":"999","GP_ID":"229645837","OBJECT_TYPE":"PAYLOAD","ARG_OF_PERICENTER":"247.8007","BSTAR":"0.00005092300000","CLASSIFICATION_TYPE":"U","NORAD_CAT_ID":"54847","SITE":"AFETR","OBJECT_NAME":"STARLINK-5061","COUNTRY_CODE":"US","RA_OF_ASC_NODE":"150.6556","SEMIMAJOR_AXIS":"6937.207","MEAN_MOTION_DOT":"0.00000484","INCLINATION":"43.0005","APOAPSIS":"559.770"},{"PERIAPSIS":"557.932","GP_ID":"229646587","ELEMENT_SET_NO":"999","OBJECT_TYPE":"PAYLOAD","TIME_SYSTEM":"UTC","OBJECT_ID":"2022-177AE","REV_AT_EPOCH":"1647","SITE":"AFETR","OBJECT_NAME":"STARLINK-5432","RA_OF_ASC_NODE":"162.8931","COUNTRY_CODE":"US","MEAN_MOTION_DOT":"-0.00001924","SEMIMAJOR_AXIS":"6937.233","APOAPSIS":"560.263","INCLINATION":"43.0023","ARG_OF_PERICENTER":"254.9223","BSTAR":"-0.00012741000000","CLASSIFICATION_TYPE":"U","NORAD_CAT_ID":"54848","PERIOD":"95.838","DECAY_DATE":null,"REF_FRAME":"TEME","CENTER_NAME":"EARTH","MEAN_ANOMALY":"105.1433","MEAN_ELEMENT_THEORY":"SGP4","MEAN_MOTION":"15.02530723","FILE":"3882049","TLE_LINE1":"1 54848U 22177AE  23096.87167052 -.00001924  00000-0 -12741-3 0  9990","EPOCH":"2023-04-06T20:55:12.332928","LAUNCH_DATE":"2022-12-28","ECCENTRICITY":"0.00016800","TLE_LINE2":"2 54848  43.0023 162.8931 0001680 254.9223 105.1433 15.02530723 16478","EPHEMERIS_TYPE":"0","MEAN_MOTION_DDOT":"0.0000000000000","RCS_SIZE":"LARGE"},{"FILE":"3881771","MEAN_MOTION":"15.02521976","TLE_LINE1":"1 54849U 22177AF  23096.60093792  .00002351  00000-0  18914-3 0  9992","PERIOD":"95.839","DECAY_DATE":null,"MEAN_ANOMALY":"73.1817","MEAN_ELEMENT_THEORY":"SGP4","CENTER_NAME":"EARTH","REF_FRAME":"TEME","MEAN_MOTION_DDOT":"0.0000000000000","EPHEMERIS_TYPE":"0","ECCENTRICITY":"0.00015350","TLE_LINE2":"2 54849  43.0017 176.4564 0001535 286.8857  73.1817 15.02521976 16291","RCS_SIZE":"LARGE","EPOCH":"2023-04-06T14:25:21.036288","LAUNCH_DATE":"2022-12-28","TIME_SYSTEM":"UTC","OBJECT_ID":"2022-177AF","REV_AT_EPOCH":"1629","PERIAPSIS":"558.060","OBJECT_TYPE":"PAYLOAD","GP_ID":"229613481","ELEMENT_SET_NO":"999","ARG_OF_PERICENTER":"286.8857","NORAD_CAT_ID":"54849","CLASSIFICATION_TYPE":"U","BSTAR":"0.00018914000000","COUNTRY_CODE":"US","RA_OF_ASC_NODE":"176.4564","SITE":"AFETR","OBJECT_NAME":"STARLINK-5434","APOAPSIS":"560.190","INCLINATION":"43.0017","MEAN_MOTION_DOT":"0.00002351","SEMIMAJOR_AXIS":"6937.260"}];
